start=new Date('2022-08-06T00:00:00.000Z').valueOf();
sats=[{"MEAN_MOTION_DOT":"-0.00000386","OBJECT_TYPE":"PAYLOAD","PERIAPSIS":"538.830","MEAN_ELEMENT_THEORY":"SGP4","MEAN_ANOMALY":"290.3532","COUNTRY_CODE":"US","ECCENTRICITY":"0.00013200","OBJECT_ID":"2022-005AH","OBJECT_NAME":"STARLINK-3363","PERIOD":"95.438","TLE_LINE2":"2 51135  53.2202  68.2425 0001320  69.7602 290.3532 15.08840637 30687","DECAY_DATE":null,"SITE":"AFETR","REV_AT_EPOCH":"3068","MEAN_MOTION":"15.08840637","CLASSIFICATION_TYPE":"U","BSTAR":"-0.00000617700000","REF_FRAME":"TEME","EPOCH":"2022-08-05T20:13:49.574496","SEMIMAJOR_AXIS":"6917.878","RCS_SIZE":"LARGE","FILE":"3530042","CENTER_NAME":"EARTH","RA_OF_ASC_NODE":"68.2425","MEAN_MOTION_DDOT":"0.0000000000000","APOAPSIS":"540.657","INCLINATION":"53.2202","EPHEMERIS_TYPE":"0","GP_ID":"209658214","TLE_LINE1":"1 51135U 22005AH  22217.84293489 -.00000386  00000-0 -61770-5 0  9990","TIME_SYSTEM":"UTC","LAUNCH_DATE":"2022-01-19","NORAD_CAT_ID":"51135","ARG_OF_PERICENTER":"69.7602","ELEMENT_SET_NO":"999"},{"ELEMENT_SET_NO":"999","ARG_OF_PERICENTER":"59.8191","TIME_SYSTEM":"UTC","LAUNCH_DATE":"2022-01-19","NORAD_CAT_ID":"51136","EPHEMERIS_TYPE":"0","GP_ID":"209657964","TLE_LINE1":"1 51136U 22005AJ  22217.84388741  .00003017  00000-0  20751-3 0  9991","APOAPSIS":"540.979","INCLINATION":"53.2171","RA_OF_ASC_NODE":"68.2344","MEAN_MOTION_DDOT":"0.0000000000000","CENTER_NAME":"EARTH","FILE":"3530042","RCS_SIZE":"LARGE","EPOCH":"2022-08-05T20:15:11.872224","SEMIMAJOR_AXIS":"6917.854","REF_FRAME":"TEME","CLASSIFICATION_TYPE":"U","BSTAR":"0.00020751000000","REV_AT_EPOCH":"3068","MEAN_MOTION":"15.08848669","SITE":"AFETR","DECAY_DATE":null,"PERIOD":"95.437","TLE_LINE2":"2 51136  53.2171  68.2344 0001822  59.8191 300.2981 15.08848669 30685","OBJECT_NAME":"STARLINK-3253","OBJECT_ID":"2022-005AJ","MEAN_ANOMALY":"300.2981","MEAN_ELEMENT_THEORY":"SGP4","ECCENTRICITY":"0.00018220","COUNTRY_CODE":"US","PERIAPSIS":"538.458","OBJECT_TYPE":"PAYLOAD","MEAN_MOTION_DOT":"0.00003017"},{"ARG_OF_PERICENTER":"60.7579","ELEMENT_SET_NO":"999","TLE_LINE1":"1 51137U 22005AK  22217.69941395  .00001862  00000-0  13508-3 0  9993","GP_ID":"209659215","EPHEMERIS_TYPE":"0","LAUNCH_DATE":"2022-01-19","NORAD_CAT_ID":"51137","TIME_SYSTEM":"UTC","RCS_SIZE":"LARGE","FILE":"3530042","CENTER_NAME":"EARTH","RA_OF_ASC_NODE":"68.8752","MEAN_MOTION_DDOT":"0.0000000000000","INCLINATION":"53.2182","APOAPSIS":"541.270","REF_FRAME":"TEME","SEMIMAJOR_AXIS":"6917.876","EPOCH":"2022-08-05T16:47:09.365280","REV_AT_EPOCH":"3067","MEAN_MOTION":"15.08841531","BSTAR":"0.00013508000000","CLASSIFICATION_TYPE":"U","OBJECT_ID":"2022-005AK","OBJECT_NAME":"STARLINK-3180","TLE_LINE2":"2 51137  53.2182  68.8752 0002210  60.7579 299.3634 15.08841531 30673","PERIOD":"95.437","DECAY_DATE":null,"SITE":"AFETR","OBJECT_TYPE":"PAYLOAD","PERIAPSIS":"538.212","ECCENTRICITY":"0.00022100","COUNTRY_CODE":"US","MEAN_ELEMENT_THEORY":"SGP4","MEAN_ANOMALY":"299.3634","MEAN_MOTION_DOT":"0.00001862"},{"OBJECT_TYPE":"PAYLOAD","PERIAPSIS":"538.415","MEAN_ANOMALY":"299.0216","MEAN_ELEMENT_THEORY":"SGP4","COUNTRY_CODE":"US","ECCENTRICITY":"0.00018970","MEAN_MOTION_DOT":"0.00002911","MEAN_MOTION":"15.08846027","REV_AT_EPOCH":"3065","CLASSIFICATION_TYPE":"U","BSTAR":"0.00020091000000","OBJECT_NAME":"STARLINK-3177","OBJECT_ID":"2022-005AL","PERIOD":"95.437","TLE_LINE2":"2 51138  53.2156  69.1293 0001897  61.0966 299.0216 15.08846027 30659","SITE":"AFETR","DECAY_DATE":null,"RCS_SIZE":"LARGE","FILE":"3530042","CENTER_NAME":"EARTH","MEAN_MOTION_DDOT":"0.0000000000000","RA_OF_ASC_NODE":"69.1293","APOAPSIS":"541.039","INCLINATION":"53.2156","REF_FRAME":"TEME","EPOCH":"2022-08-05T15:22:21.790272","SEMIMAJOR_AXIS":"6917.862","ARG_OF_PERICENTER":"61.0966","ELEMENT_SET_NO":"999","EPHEMERIS_TYPE":"0","GP_ID":"209658957","TLE_LINE1":"1 51138U 22005AL  22217.64052998  .00002911  00000-0  20091-3 0  9992","TIME_SYSTEM":"UTC","LAUNCH_DATE":"2022-01-19","NORAD_CAT_ID":"51138"},{"BSTAR":"0.00003610200000","CLASSIFICATION_TYPE":"U","REV_AT_EPOCH":"3181","MEAN_MOTION":"15.08836978","DECAY_DATE":null,"SITE":"AFETR","OBJECT_NAME":"STARLINK-3172","OBJECT_ID":"2022-005AM","TLE_LINE2":"2 51139  53.2185  68.0134 0001991  61.6172 298.5021 15.08836978 31815","PERIOD":"95.438","ECCENTRICITY":"0.00019910","COUNTRY_CODE":"US","MEAN_ANOMALY":"298.5021","MEAN_ELEMENT_THEORY":"SGP4","OBJECT_TYPE":"PAYLOAD","PERIAPSIS":"538.377","MEAN_MOTION_DOT":"0.00000286","ELEMENT_SET_NO":"999","ARG_OF_PERICENTER":"61.6172","LAUNCH_DATE":"2022-01-19","NORAD_CAT_ID":"51139","TIME_SYSTEM":"UTC","GP_ID":"209632200","TLE_LINE1":"1 51139U 22005AM  22217.89077832  .00000286  00000-0  36102-4 0  9998","EPHEMERIS_TYPE":"0","MEAN_MOTION_DDOT":"0.0000000000000","RA_OF_ASC_NODE":"68.0134","INCLINATION":"53.2185","APOAPSIS":"541.132","RCS_SIZE":"LARGE","CENTER_NAME":"EARTH","FILE":"3529916","SEMIMAJOR_AXIS":"6917.890","EPOCH":"2022-08-05T21:22:43.246848","REF_FRAME":"TEME"},{"MEAN_MOTION_DOT":"0.00000736","COUNTRY_CODE":"US","ECCENTRICITY":"0.00018800","MEAN_ANOMALY":"293.1339","MEAN_ELEMENT_THEORY":"SGP4","OBJECT_TYPE":"PAYLOAD","PERIAPSIS":"538.426","DECAY_DATE":null,"SITE":"AFETR","OBJECT_NAME":"STARLINK-3175","OBJECT_ID":"2022-005AN","TLE_LINE2":"2 51140  53.2172  68.2628 0001880  66.9851 293.1339 15.08846323 30695","PERIOD":"95.437","BSTAR":"0.00006435100000","CLASSIFICATION_TYPE":"U","MEAN_MOTION":"15.08846323","REV_AT_EPOCH":"3069","SEMIMAJOR_AXIS":"6917.861","EPOCH":"2022-08-05T20:03:13.617792","REF_FRAME":"TEME","RA_OF_ASC_NODE":"68.2628","MEAN_MOTION_DDOT":"0.0000000000000","INCLINATION":"53.2172","APOAPSIS":"541.027","RCS_SIZE":"LARGE","CENTER_NAME":"EARTH","FILE":"3530042","LAUNCH_DATE":"2022-01-19","NORAD_CAT_ID":"51140","TIME_SYSTEM":"UTC","TLE_LINE1":"1 51140U 22005AN  22217.83557428  .00000736  00000-0  64351-4 0  9995","GP_ID":"209658464","EPHEMERIS_TYPE":"0","ELEMENT_SET_NO":"999","ARG_OF_PERICENTER":"66.9851"},{"MEAN_MOTION_DOT":"-0.00001531","COUNTRY_CODE":"US","ECCENTRICITY":"0.00020490","MEAN_ANOMALY":"295.6336","MEAN_ELEMENT_THEORY":"SGP4","PERIAPSIS":"538.345","OBJECT_TYPE":"PAYLOAD","DECAY_DATE":null,"SITE":"AFETR","TLE_LINE2":"2 51141  53.2195  68.0521 0002049  64.4868 295.6336 15.08834393 31813","PERIOD":"95.438","OBJECT_ID":"2022-005AP","OBJECT_NAME":"STARLINK-3179","BSTAR":"-0.00007808700000","CLASSIFICATION_TYPE":"U","MEAN_MOTION":"15.08834393","REV_AT_EPOCH":"3181","SEMIMAJOR_AXIS":"6917.898","EPOCH":"2022-08-05T21:12:07.280640","REF_FRAME":"TEME","INCLINATION":"53.2195","APOAPSIS":"541.180","MEAN_MOTION_DDOT":"0.0000000000000","RA_OF_ASC_NODE":"68.0521","FILE":"3529916","CENTER_NAME":"EARTH","RCS_SIZE":"LARGE","LAUNCH_DATE":"2022-01-19","NORAD_CAT_ID":"51141","TIME_SYSTEM":"UTC","GP_ID":"209632189","TLE_LINE1":"1 51141U 22005AP  22217.88341760 -.00001531  00000-0 -78087-4 0  9998","EPHEMERIS_TYPE":"0","ELEMENT_SET_NO":"999","ARG_OF_PERICENTER":"64.4868"},{"OBJECT_TYPE":"PAYLOAD","PERIAPSIS":"538.407","MEAN_ANOMALY":"150.7586","MEAN_ELEMENT_THEORY":"SGP4","ECCENTRICITY":"0.00019720","COUNTRY_CODE":"US","MEAN_MOTION_DOT":"0.00021909","MEAN_MOTION":"15.08831658","REV_AT_EPOCH":"130","CLASSIFICATION_TYPE":"U","BSTAR":"0.00139070000000","OBJECT_ID":"2022-005AQ","OBJECT_NAME":"STARLINK-3369","PERIOD":"95.438","TLE_LINE2":"2 51142  53.2182  57.9056 0001972  59.8882 150.7586 15.08831658  1308","SITE":"AFETR","DECAY_DATE":null,"RCS_SIZE":"LARGE","FILE":"3530042","CENTER_NAME":"EARTH","MEAN_MOTION_DDOT":"0.0000000000000","RA_OF_ASC_NODE":"57.9056","APOAPSIS":"541.135","INCLINATION":"53.2182","REF_FRAME":"TEME","EPOCH":"2022-08-05T22:00:00.999936","SEMIMAJOR_AXIS":"6917.906","ARG_OF_PERICENTER":"59.8882","ELEMENT_SET_NO":"999","EPHEMERIS_TYPE":"0","TLE_LINE1":"1 51142U 22005AQ  22217.91667824  .00021909  00000-0  13907-2 0  9992","GP_ID":"209659457","TIME_SYSTEM":"UTC","LAUNCH_DATE":"2022-01-19","NORAD_CAT_ID":"51142"},{"GP_ID":"209658215","TLE_LINE1":"1 51143U 22005AR  22217.86777554  .00000144  00000-0  27195-4 0  9993","EPHEMERIS_TYPE":"0","LAUNCH_DATE":"2022-01-19","NORAD_CAT_ID":"51143","TIME_SYSTEM":"UTC","ARG_OF_PERICENTER":"72.1055","ELEMENT_SET_NO":"999","REF_FRAME":"TEME","SEMIMAJOR_AXIS":"6917.880","EPOCH":"2022-08-05T20:49:35.806656","CENTER_NAME":"EARTH","FILE":"3530042","RCS_SIZE":"LARGE","INCLINATION":"53.2178","APOAPSIS":"541.684","MEAN_MOTION_DDOT":"0.0000000000000","RA_OF_ASC_NODE":"78.1325","TLE_LINE2":"2 51143  53.2178  78.1325 0002802  72.1055 288.0242 15.08840017 30553","PERIOD":"95.438","OBJECT_ID":"2022-005AR","OBJECT_NAME":"STARLINK-3184","SITE":"AFETR","DECAY_DATE":null,"MEAN_MOTION":"15.08840017","REV_AT_EPOCH":"3055","BSTAR":"0.00002719500000","CLASSIFICATION_TYPE":"U","MEAN_MOTION_DOT":"0.00000144","PERIAPSIS":"537.807","OBJECT_TYPE":"PAYLOAD","COUNTRY_CODE":"US","ECCENTRICITY":"0.00028020","MEAN_ANOMALY":"288.0242","MEAN_ELEMENT_THEORY":"SGP4"},{"REF_FRAME":"TEME","SEMIMAJOR_AXIS":"6917.876","EPOCH":"2022-08-05T21:17:25.123776","CENTER_NAME":"EARTH","FILE":"3529925","RCS_SIZE":"LARGE","INCLINATION":"53.2184","APOAPSIS":"541.104","MEAN_MOTION_DDOT":"0.0000000000000","RA_OF_ASC_NODE":"68.0319","TLE_LINE1":"1 51144U 22005AS  22217.88709634  .00001375  00000-0  10448-3 0  9999","GP_ID":"209632207","EPHEMERIS_TYPE":"0","LAUNCH_DATE":"2022-01-19","NORAD_CAT_ID":"51144","TIME_SYSTEM":"UTC","ARG_OF_PERICENTER":"75.6432","ELEMENT_SET_NO":"999","MEAN_MOTION_DOT":"0.00001375","PERIAPSIS":"538.378","OBJECT_TYPE":"PAYLOAD","ECCENTRICITY":"0.00019700","COUNTRY_CODE":"US","MEAN_ANOMALY":"284.4779","MEAN_ELEMENT_THEORY":"SGP4","TLE_LINE2":"2 51144  53.2184  68.0319 0001970  75.6432 284.4779 15.08841401 31817","PERIOD":"95.437","OBJECT_ID":"2022-005AS","OBJECT_NAME":"STARLINK-3185","SITE":"AFETR","DECAY_DATE":null,"MEAN_MOTION":"15.08841401","REV_AT_EPOCH":"3181","BSTAR":"0.00010448000000","CLASSIFICATION_TYPE":"U"}];
